BEIDOU-3 IGSO-2         
1 44337U 19035A   25234.69829609 -.00000178  00000+0  00000+0 0  9999
2 44337  55.2151 161.4870 0035033 209.5880 328.3519  1.00250209 22672
PROX-1                  
1 44339U 19036A   25235.22545139  .00008820  00000+0  10714-2 0  9992
2 44339  23.9963 290.9857 0007083 195.1469 164.8817 14.81299774329090
NPSAT1                  
1 44340U 19036B   25232.79069438  .00005066  00000+0  78509-3 0  9992
2 44340  24.0001   8.0786 0009121  64.2985 295.8451 14.70146746328164
OTB                     
1 44341U 19036C   25232.88430798  .00001148  00000+0  20646-3 0  9990
2 44341  23.9970  81.5252 0011034 304.4572  55.4877 14.56272184327531
FORMOSAT 7-3            
1 44343U 19036E   25232.88883945  .00004417  00000+0  27146-3 0  9992
2 44343  23.9995  80.2653 0000761 340.2498  19.7976 15.06221224337855
DSX                     
1 44344U 19036F   25233.06511514 -.00000026  00000+0  00000+0 0  9993
2 44344  42.2321 100.4315 1961488 247.0235  91.2049  4.54374053102158
FORMOSAT 7-1            
1 44349U 19036L   25235.25174368  .00002582  00000+0  19143-3 0  9993
2 44349  23.9969 242.8858 0001361  89.1302 270.9355 14.97333920339956
FORMOSAT 7-4            
1 44350U 19036M   25234.53972771  .00002558  00000+0  18948-3 0  9994
2 44350  23.9992 309.7671 0001551  74.5038 285.5634 14.97325619339267
FORMOSAT 7-2            
1 44351U 19036N   25232.76346680  .00003123  00000+0  23695-3 0  9996
2 44351  23.9996  16.0808 0001455  57.1541 302.9100 14.97326092338516
FORMOSAT 7-6            
1 44353U 19036Q   25235.22901084  .00002698  00000+0  20125-3 0  9998
2 44353  23.9968 180.2612 0001613 100.9118 259.1564 14.97323128337116
FORMOSAT 7-5            
1 44358U 19036V   25235.09170778  .00002515  00000+0  18410-3 0  9998
2 44358  23.9986 120.2167 0000980 310.1231  49.9185 14.97680492337627
METEOR-M2 2             
1 44387U 19038A   25235.24754575  .00000090  00000+0  58886-4 0  9990
2 44387  98.8809 213.6871 0001935 122.9957 237.1408 14.24226248318889
ICEYE-X4                
1 44390U 19038D   25235.32544021  .00008208  00000+0  37038-3 0  9990
2 44390  97.9029 247.0070 0013974 259.6205 100.3454 15.21200466336399
MOMENTUS-X1             
1 44408U 19038Y   25235.09611567  .00015125  00000+0  30939-3 0  9993
2 44408  97.7172 252.6027 0012311  33.5578 326.6448 15.46150966340214
COSMOS 2538             
1 44424U 19039D   25235.20364254  .00004301  00000+0  22137-3 0  9998
2 44424  97.6209 307.9984 0046351   1.0893 359.0432 15.16036877334687
YAOGAN-30 06A           
1 44449U 19045A   25235.32417598  .00002530  00000+0  19965-3 0  9992
2 44449  34.9948 342.7654 0004822 207.0427 153.0030 15.00372844331815
YAOGAN-30 06B           
1 44450U 19045B   25235.30256782  .00002362  00000+0  18647-3 0  9997
2 44450  34.9940 342.4619 0008234 344.2863  15.7588 15.00386905331855
YAOGAN-30 06C           
1 44451U 19045C   25235.34649110  .00002434  00000+0  19221-3 0  9992
2 44451  34.9950 342.0620 0000943 285.5082  74.5521 15.00375839331757
MERIDIAN 8              
1 44453U 19046A   25233.64877940  .00000081  00000+0  00000+0 0  9997
2 44453  62.8791  88.3024 6958520 274.0235  15.8696  2.00613550 44339
COSMOS 2539             
1 44457U 19048A   25232.60752469  .00000063  00000+0  00000+0 0  9996
2 44457   0.0192 117.6028 0000379  25.6516  56.6088  1.00271381 22210
EDRS-C                  
1 44475U 19049A   25235.27427781 -.00000278  00000+0  00000+0 0  9998
2 44475   0.0518 105.2900 0001196  64.6277  43.0984  1.00274254 22227
INTELSAT 39 (IS-39)     
1 44476U 19049B   25235.11557804  .00000000  00000+0  00000+0 0  9994
2 44476   0.0232 131.5596 0000895 199.4887 104.1553  1.00270784 22138
AMOS-17                 
1 44479U 19050A   25235.23933507  .00000000  00000+0  00000+0 0  9990
2 44479   0.0198 117.7662 0002124  36.7436 280.4110  1.00271021 22190
AEHF-5 (USA 292)        
1 44481U 19051A   25235.05049111 -.00000274  00000+0  00000+0 0  9997
2 44481   1.8606 318.1954 0064643   9.5124 115.1374  1.00271125 22273
BRO-1                   
1 44495U 19054A   25235.31501762  .00022575  00000+0  46571-3 0  9993
2 44495  45.0056 201.2729 0004727  82.1070 278.0356 15.45533125333171
GLOBAL-4                
1 44499U 19054E   25235.16429259  .00016451  00000+0  39496-3 0  9994
2 44499  45.0113 123.9285 0006482 192.5343 167.5385 15.41205488334062
NAVSTAR 78 (USA 293)    
1 44506U 19056A   25234.49974610 -.00000112  00000+0  00000+0 0  9999
2 44506  55.7616 343.0083 0055820 194.8971 162.4997  2.00563276 44075
COSMOS 2540             
1 44517U 19057A   25235.32138527  .00000049  00000+0  81342-4 0  9995
2 44517  99.2159 246.8520 0014732 248.3622 111.5965 13.85877527302612
KX-09                   
1 44520U 19058B   25235.30370590  .00001480  00000+0  13884-3 0  9991
2 44520  97.7877 245.3556 0008948 256.0794 103.9431 14.95498101325490
ZY-1 02D                
1 44528U 19059A   25235.29020258  .00000125  00000+0  58239-4 0  9990
2 44528  98.3623 301.6620 0000599 356.8275   3.2907 14.35431623311607
BNU-1 (JINGSHI 1)       
1 44529U 19059B   25235.29587813  .00000495  00000+0  14579-3 0  9994
2 44529  98.5726 354.5791 0013088 190.2581 169.8347 14.47882497313877
TAURUS-1 (JINNIUZUO 1)  
1 44530U 19059C   25235.31632670  .00005463  00000+0  99179-3 0  9990
2 44530  98.6143  18.3270 0009943 159.9837 200.1757 14.66615124314890
ZHUHAI-1 03B            
1 44536U 19060C   25235.33535794  .00014129  00000+0  41776-3 0  9998
2 44536  97.5266  17.0777 0011863 320.1736  39.8635 15.34970203330351
ZHUHAI-1 03C            
1 44537U 19060D   25235.32510124  .00023572  00000+0  49406-3 0  9998
2 44537  97.5525  21.1892 0016842 280.9937  78.9417 15.45263112330631
ZHUHAI-1 03D            
1 44538U 19060E   25235.31110067  .00013158  00000+0  42601-3 0  9999
2 44538  97.5095  11.5273 0010502 299.7875  60.2321 15.32112502330210
ZHUHAI-1 03E            
1 44539U 19060F   25235.34716464  .00010878  00000+0  39069-3 0  9996
2 44539  97.5292  13.3972 0010746 359.9453   0.1784 15.28790551330078
BEIDOU-3 M24            
1 44542U 19061A   25234.15837285 -.00000016  00000+0  00000+0 0  9997
2 44542  54.4094 192.8128 0008587 357.0782   2.8682  1.86229336 40222
BEIDOU-3 M23            
1 44543U 19061B   25233.93298808 -.00000016  00000+0  00000+0 0  9995
2 44543  54.4078 192.7887 0005795 339.3213 142.2973  1.86229502 40223
YUNHAI-1 02             
1 44547U 19063A   25235.26024399  .00000266  00000+0  11365-3 0  9997
2 44547  98.4240 249.2270 0004783 333.0478  27.0457 14.32536053309211
COSMOS 2541             
1 44552U 19065A   25234.66838657  .00000088  00000+0  00000+0 0  9990
2 44552  62.7293 184.5247 6485531 272.4609  20.2277  2.00602133 43233
GAOFEN-10R              
1 44622U 19066A   25235.31260791  .00001180  00000+0  15233-3 0  9992
2 44622  98.0078 182.5114 0006656  41.5863 318.5855 14.82852676318235
EUTELSAT 5 WEST B       
1 44624U 19067A   25235.25044510 -.00000059  00000+0  00000+0 0  9994
2 44624   0.0921 309.6277 0002984 207.6721 259.6118  1.00272372 21443
MEV-1                   
1 44625U 19067B   25212.93600035 -.00000138  00000+0  00000+0 0  9993
2 44625   0.3397  82.5138 0000340 231.5229 128.8627  1.00277994 21100
PALISADE                
1 44634U 19069A   25232.78038353 -.00000385  00000+0 -11144-2 0  9997
2 44634  87.8998 339.5524 0010345 144.7264 215.4551 13.11893165279722
TJS-4                   
1 44637U 19070A   25235.33381807 -.00000187  00000+0  00000+0 0  9996
2 44637   0.0526 273.8463 0002474 244.8432  16.8672  1.00273484 21480
GAOFEN-7                
1 44703U 19072A   25235.25705326  .00003985  00000+0  18075-3 0  9992
2 44703  97.2862 302.1674 0011008 354.3663   5.7448 15.21334509322342
BEIDOU-3 IGSO-3         
1 44709U 19073A   25234.53864843 -.00000156  00000+0  00000+0 0  9992
2 44709  55.3112 284.1264 0045652 190.9977 169.0212  1.00278370 21466
STARLINK-1008           
1 44714U 19074B   25233.66900835  .00000373  00000+0  43932-4 0  9990
2 44714  53.0577   4.5503 0001147 103.0381 257.0736 15.06409988318603
STARLINK-1010           
1 44716U 19074D   25235.25846296  .00139579  00000+0  10863-2 0  9995
2 44716  53.0542 320.4546 0011274 312.7581  47.2487 15.70742442319347
STARLINK-1011           
1 44717U 19074E   25235.25002315  .00205699  00000+0  24279-2 0  9995
2 44717  53.0546  12.0931 0000635   0.4730 119.5741 15.60148644  5846
STARLINK-1012           
1 44718U 19074F   25234.50941932 -.00000280  00000+0  65501-7 0  9998
2 44718  53.0569   0.7771 0001230 101.3677 258.7451 15.06394548318725
STARLINK-1013           
1 44719U 19074G   25235.53931093  .00564543  17298-3  62433-3 0  9994
2 44719  53.0436 300.4863 0007284 347.4241  12.6610 16.08966449320787
STARLINK-1015           
1 44721U 19074J   25235.25002315  .00156429  00000+0  67077-3 0  9990
2 44721  53.0511 311.5781 0004828 291.6001 186.7441 15.84134372  5837
STARLINK-1017           
1 44723U 19074L   25233.74154579  .00018766  00000+0  11775-2 0  9998
2 44723  53.0549   3.4777 0001927 182.8012 177.2968 15.09346996318629
STARLINK-1019           
1 44724U 19074M   25234.50573183  .00001009  00000+0  86669-4 0  9998
2 44724  53.0562   0.7915 0001198  81.1472 278.9652 15.06388112318723
STARLINK-1020           
1 44725U 19074N   25235.10838335  .00000383  00000+0  44618-4 0  9991
2 44725  53.0568  18.0857 0001278  85.5396 274.5740 15.06394474318536
STARLINK-1021           
1 44726U 19074P   25235.25094352  .00141960  00000+0  76056-3 0  9998
2 44726  53.0493 316.3485 0006140 278.6801  81.3524 15.79372770319411
STARLINK-1029           
1 44734U 19074X   25235.25002315  .00161617  00000+0  10616-2 0  9995
2 44734  53.0532 239.1477 0011151   5.6997   3.8017 15.74652407  6017
